{
  "type": "FeatureCollection",
  "features": [
    {
      "type": "Feature",
      "properties": {
        "norad_id": 30040,
        "name": "FENGYUN 1C DEB",
        "group": "fengyun-1c-debris",
        "lat": -60.22194734115933,
        "lon": 159.6927731523655,
        "alt_km": 779.6460156769099,
        "timestamp": "2025-12-03T13:52:09.834940+00:00",
        "meta_object_name": "FENGYUN 1C DEB",
        "meta_object_id": "1999-025NR",
        "meta_epoch": "2025-12-03T01:19:35.117184",
        "meta_mean_motion": 14.36959703,
        "meta_eccentricity": 0.00328578,
        "meta_inclination": 98.2342,
        "meta_ra_of_asc_node": 353.8519,
        "meta_arg_of_pericenter": 342.7255,
        "meta_mean_anomaly": 76.8661,
        "meta_ephemeris_type": 0,
        "meta_classification_type": "U",
        "meta_norad_cat_id": 30040,
        "meta_element_set_no": 999,
        "meta_rev_at_epoch": 97789,
        "meta_bstar": 0.0022929603,
        "meta_mean_motion_dot": 6.798e-05,
        "meta_mean_motion_ddot": 0,
        "tle_line1": "1 30040U 99025NR  25337.05526756  .00006798  00000+0  22930-2 0  9995",
        "tle_line2": "2 30040  98.2342 353.8519 0032857 342.7255  76.8661 14.36959703977895"
      },
      "geometry": {
        "type": "Point",
        "coordinates": [
          159.6927731523655,
          -60.22194734115933
        ]
      }
    },
    {
      "type": "Feature",
      "properties": {
        "norad_id": 30041,
        "name": "FENGYUN 1C DEB",
        "group": "fengyun-1c-debris",
        "lat": -67.96260800273942,
        "lon": -120.79292774034877,
        "alt_km": 831.0698741053329,
        "timestamp": "2025-12-03T13:52:09.834950+00:00",
        "meta_object_name": "FENGYUN 1C DEB",
        "meta_object_id": "1999-025NS",
        "meta_epoch": "2025-12-03T06:01:56.622720",
        "meta_mean_motion": 14.1315686,
        "meta_eccentricity": 0.00344748,
        "meta_inclination": 99.4674,
        "meta_ra_of_asc_node": 83.2067,
        "meta_arg_of_pericenter": 243.618,
        "meta_mean_anomaly": 145.9695,
        "meta_ephemeris_type": 0,
        "meta_classification_type": "U",
        "meta_norad_cat_id": 30041,
        "meta_element_set_no": 999,
        "meta_rev_at_epoch": 97153,
        "meta_bstar": 0.00069333059,
        "meta_mean_motion_dot": 1.255e-05,
        "meta_mean_motion_ddot": 0,
        "tle_line1": "1 30041U 99025NS  25337.25134980  .00001255  00000+0  69333-3 0  9994",
        "tle_line2": "2 30041  99.4674  83.2067 0034474 243.6180 145.9695 14.13156860971530"
      },
      "geometry": {
        "type": "Point",
        "coordinates": [
          -120.79292774034877,
          -67.96260800273942
        ]
      }
    },
    {
      "type": "Feature",
      "properties": {
        "norad_id": 30043,
        "name": "FENGYUN 1C DEB",
        "group": "fengyun-1c-debris",
        "lat": -72.5832580866522,
        "lon": 104.64778862466737,
        "alt_km": 942.07258998417,
        "timestamp": "2025-12-03T13:52:09.834961+00:00",
        "meta_object_name": "FENGYUN 1C DEB",
        "meta_object_id": "1999-025NU",
        "meta_epoch": "2025-12-03T05:48:12.021120",
        "meta_mean_motion": 14.23451036,
        "meta_eccentricity": 0.02839477,
        "meta_inclination": 98.6282,
        "meta_ra_of_asc_node": 75.3698,
        "meta_arg_of_pericenter": 158.5315,
        "meta_mean_anomaly": 202.8057,
        "meta_ephemeris_type": 0,
        "meta_classification_type": "U",
        "meta_norad_cat_id": 30043,
        "meta_element_set_no": 999,
        "meta_rev_at_epoch": 97210,
        "meta_bstar": 0.0016937556,
        "meta_mean_motion_dot": 5.793e-05,
        "meta_mean_motion_ddot": 0,
        "tle_line1": "1 30043U 99025NU  25337.24180580  .00005793  00000+0  16938-2 0  9995",
        "tle_line2": "2 30043  98.6282  75.3698 0283947 158.5315 202.8057 14.23451036972108"
      },
      "geometry": {
        "type": "Point",
        "coordinates": [
          104.64778862466737,
          -72.5832580866522
        ]
      }
    },
    {
      "type": "Feature",
      "properties": {
        "norad_id": 30044,
        "name": "FENGYUN 1C DEB",
        "group": "fengyun-1c-debris",
        "lat": -4.013056822394122,
        "lon": -101.32527595819836,
        "alt_km": 780.4022954699985,
        "timestamp": "2025-12-03T13:52:09.834971+00:00",
        "meta_object_name": "FENGYUN 1C DEB",
        "meta_object_id": "1999-025NV",
        "meta_epoch": "2025-12-03T05:36:36.126144",
        "meta_mean_motion": 14.50436963,
        "meta_eccentricity": 0.00790344,
        "meta_inclination": 98.2109,
        "meta_ra_of_asc_node": 257.7587,
        "meta_arg_of_pericenter": 197.0624,
        "meta_mean_anomaly": 162.7912,
        "meta_ephemeris_type": 0,
        "meta_classification_type": "U",
        "meta_norad_cat_id": 30044,
        "meta_element_set_no": 999,
        "meta_rev_at_epoch": 97901,
        "meta_bstar": 0.0024248739,
        "meta_mean_motion_dot": 9.831e-05,
        "meta_mean_motion_ddot": 0,
        "tle_line1": "1 30044U 99025NV  25337.23375146  .00009831  00000+0  24249-2 0  9990",
        "tle_line2": "2 30044  98.2109 257.7587 0079034 197.0624 162.7912 14.50436963979010"
      },
      "geometry": {
        "type": "Point",
        "coordinates": [
          -101.32527595819836,
          -4.013056822394122
        ]
      }
    },
    {
      "type": "Feature",
      "properties": {
        "norad_id": 30045,
        "name": "FENGYUN 1C DEB",
        "group": "fengyun-1c-debris",
        "lat": 32.013168570783414,
        "lon": 6.98192749972736,
        "alt_km": 837.432538770965,
        "timestamp": "2025-12-03T13:52:09.834981+00:00",
        "meta_object_name": "FENGYUN 1C DEB",
        "meta_object_id": "1999-025NW",
        "meta_epoch": "2025-12-03T02:13:01.888608",
        "meta_mean_motion": 14.21467001,
        "meta_eccentricity": 0.0095404,
        "meta_inclination": 99.1796,
        "meta_ra_of_asc_node": 12.2795,
        "meta_arg_of_pericenter": 140.5186,
        "meta_mean_anomaly": 289.9977,
        "meta_ephemeris_type": 0,
        "meta_classification_type": "U",
        "meta_norad_cat_id": 30045,
        "meta_element_set_no": 999,
        "meta_rev_at_epoch": 96551,
        "meta_bstar": 0.0025076279,
        "meta_mean_motion_dot": 5.701e-05,
        "meta_mean_motion_ddot": 0,
        "tle_line1": "1 30045U 99025NW  25337.09238297  .00005701  00000+0  25076-2 0  9991",
        "tle_line2": "2 30045  99.1796  12.2795 0095404 140.5186 289.9977 14.21467001965511"
      },
      "geometry": {
        "type": "Point",
        "coordinates": [
          6.98192749972736,
          32.013168570783414
        ]
      }
    },
    {
      "type": "Feature",
      "properties": {
        "norad_id": 30047,
        "name": "FENGYUN 1C DEB",
        "group": "fengyun-1c-debris",
        "lat": 32.23897710805466,
        "lon": -39.76938408630155,
        "alt_km": 997.4281892292538,
        "timestamp": "2025-12-03T13:52:09.834992+00:00",
        "meta_object_name": "FENGYUN 1C DEB",
        "meta_object_id": "1999-025NY",
        "meta_epoch": "2025-12-03T08:18:15.645888",
        "meta_mean_motion": 13.94330034,
        "meta_eccentricity": 0.01256904,
        "meta_inclination": 99.9192,
        "meta_ra_of_asc_node": 133.6458,
        "meta_arg_of_pericenter": 347.8361,
        "meta_mean_anomaly": 75.4712,
        "meta_ephemeris_type": 0,
        "meta_classification_type": "U",
        "meta_norad_cat_id": 30047,
        "meta_element_set_no": 999,
        "meta_rev_at_epoch": 95785,
        "meta_bstar": 0.00070508819,
        "meta_mean_motion_dot": 9.5e-06,
        "meta_mean_motion_ddot": 0,
        "tle_line1": "1 30047U 99025NY  25337.34601442  .00000950  00000+0  70509-3 0  9990",
        "tle_line2": "2 30047  99.9192 133.6458 0125690 347.8361  75.4712 13.94330034957850"
      },
      "geometry": {
        "type": "Point",
        "coordinates": [
          -39.76938408630155,
          32.23897710805466
        ]
      }
    },
    {
      "type": "Feature",
      "properties": {
        "norad_id": 30048,
        "name": "FENGYUN 1C DEB",
        "group": "fengyun-1c-debris",
        "lat": -74.32524759968467,
        "lon": -8.757419783191603,
        "alt_km": 838.080884051109,
        "timestamp": "2025-12-03T13:52:09.835002+00:00",
        "meta_object_name": "FENGYUN 1C DEB",
        "meta_object_id": "1999-025NZ",
        "meta_epoch": "2025-12-03T02:55:46.653600",
        "meta_mean_motion": 13.79883309,
        "meta_eccentricity": 0.01863534,
        "meta_inclination": 98.6671,
        "meta_ra_of_asc_node": 203.7506,
        "meta_arg_of_pericenter": 271.0186,
        "meta_mean_anomaly": 243.2048,
        "meta_ephemeris_type": 0,
        "meta_classification_type": "U",
        "meta_norad_cat_id": 30048,
        "meta_element_set_no": 999,
        "meta_rev_at_epoch": 94993,
        "meta_bstar": 0.00036710397,
        "meta_mean_motion_dot": 3.93e-06,
        "meta_mean_motion_ddot": 0,
        "tle_line1": "1 30048U 99025NZ  25337.12206775  .00000393  00000+0  36710-3 0  9994",
        "tle_line2": "2 30048  98.6671 203.7506 0186353 271.0186 243.2048 13.79883309949936"
      },
      "geometry": {
        "type": "Point",
        "coordinates": [
          -8.757419783191603,
          -74.32524759968467
        ]
      }
    }
  ]
}